[{"OBJECT_NAME":"STARLINK-30591","OBJECT_ID":"2023-160P","EPOCH":"2026-03-09T22:00:01.999584","MEAN_MOTION":15.27535407,"ECCENTRICITY":0.00018112,"INCLINATION":43.0005,"RA_OF_ASC_NODE":76.295,"ARG_OF_PERICENTER":252.658,"MEAN_ANOMALY":122.7636,"EPHEMERIS_TYPE":0,"CLASSIFICATION_TYPE":"U","NORAD_CAT_ID":58088,"ELEMENT_SET_NO":999,"REV_AT_EPOCH":573,"BSTAR":0.0017262397,"MEAN_MOTION_DOT":0.00047482,"MEAN_MOTION_DDOT":0},{"OBJECT_NAME":"SIMSAT 1","OBJECT_ID":"2000-026A","EPOCH":"2026-03-09T17:22:54.646176","MEAN_MOTION":15.27666538,"ECCENTRICITY":0.00084816,"INCLINATION":86.3501,"RA_OF_ASC_NODE":180.5413,"ARG_OF_PERICENTER":14.8337,"MEAN_ANOMALY":345.3157,"EPHEMERIS_TYPE":0,"CLASSIFICATION_TYPE":"U","NORAD_CAT_ID":26365,"ELEMENT_SET_NO":999,"REV_AT_EPOCH":42720,"BSTAR":0.00013499313,"MEAN_MOTION_DOT":3.69e-5,"MEAN_MOTION_DDOT":0}]
